TOMORROW-S2             
1 60485U 24149T   26068.75188364  .00008133  00000+0  27683-3 0  9990
2 60485  97.3857 150.0385 0001648 234.3331 125.7757 15.30674935 86869
STARLINK-35819          
1 66285U 25247W   26068.62628744  .00018521  00000+0  63580-3 0  9999
2 66285  53.1577 191.7561 0001161  55.2080 304.9030 15.30204109 21025
